NORAD_CAT_ID,OBJECT_NAME,OBJECT_TYPE,EPOCH,MEAN_MOTION,ECCENTRICITY,INCLINATION,RA_OF_ASC_NODE,ARG_OF_PERICENTER,MEAN_ANOMALY,BSTAR,MEAN_MOTION_DOT,MEAN_MOTION_DDOT,TLE_LINE0,TLE_LINE1,TLE_LINE2,SEMIMAJOR_AXIS,PERIOD,APOGEE,PERIGEE,DECAYED
55780.0,STARLINK-5819,PAYLOAD,2023-04-16 04:56:38,15.69899309,0.0002866,70.0021,33.0365,276.0916,83.9953,-5.512e-05,-6.827e-05,0.0,0 STARLINK-5819,1 55780U 23028AR  23106.20600184 -.00006827  00000-0 -55120-4 0  9995,2 55780  70.0021  33.0365 0002866 276.0916  83.9953 15.69899309  7496,6737.322,91.726,361.118,357.256,0.0
55780.0,STARLINK-5819,PAYLOAD,2023-04-16 06:28:23,15.69904834,0.0003183,70.0019,32.8572,268.5234,91.5597,-4.3836e-05,-5.476e-05,0.0,0 STARLINK-5819,1 55780U 23028AR  23106.26971520 -.00005476  00000-0 -43836-4 0  9996,2 55780  70.0019  32.8572 0003183 268.5234  91.5597 15.69904834  7503,6737.306,91.725,361.316,357.027,0.0
55780.0,STARLINK-5819,PAYLOAD,2023-04-16 20:14:09,15.6991832,0.0003601,70.0006,31.2452,270.3993,89.679,-4.7696e-06,-7.86e-06,0.0,0 STARLINK-5819,1 55780U 23028AR  23106.84316180 -.00000786  00000-0 -47696-5 0  9993,2 55780  70.0006  31.2452 0003601 270.3993  89.6790 15.69918320  7594,6737.268,91.725,361.559,356.707,0.0
55780.0,STARLINK-5819,PAYLOAD,2023-04-16 21:45:54,15.69919471,0.000355,70.0009,31.0657,269.9184,90.1604,-3.8281e-07,-2.59e-06,0.0,0 STARLINK-5819,1 55780U 23028AR  23106.90687800 -.00000259  00000-0 -38281-6 0  9996,2 55780  70.0009  31.0657 0003550 269.9184  90.1604 15.69919471  7602,6737.264,91.724,361.521,356.738,0.0
55780.0,STARLINK-5819,PAYLOAD,2023-04-17 03:52:54,15.69930026,0.0002714,70.0023,30.3512,268.5948,91.4937,2.0178e-05,2.215e-05,0.0,0 STARLINK-5819,1 55780U 23028AR  23107.16174159  .00002215  00000-0  20178-4 0  9999,2 55780  70.0023  30.3512 0002714 268.5948  91.4937 15.69930026  7640,6737.234,91.724,360.928,357.271,0.0
55780.0,STARLINK-5819,PAYLOAD,2023-04-17 20:42:10,15.69928143,0.0002887,70.0033,28.3819,238.5333,121.5581,5.3806e-06,4.35e-06,0.0,0 STARLINK-5819,1 55780U 23028AR  23107.86262497  .00000435  00000-0  53806-5 0  9996,2 55780  70.0033  28.3819 0002887 238.5333 121.5581 15.69928143  7753,6737.24,91.724,361.05,357.16,0.0
55780.0,STARLINK-5819,PAYLOAD,2023-04-18 04:20:56,15.69934613,0.0003179,70.0023,27.4836,264.8582,95.2251,2.749e-05,3.095e-05,0.0,0 STARLINK-5819,1 55780U 23028AR  23108.18120673  .00003095  00000-0  27490-4 0  9995,2 55780  70.0023  27.4836 0003179 264.8582  95.2251 15.69934613  7800,6737.221,91.724,361.228,356.944,0.0
55780.0,STARLINK-5819,PAYLOAD,2023-04-19 04:48:57,15.69943921,0.0003242,70.0027,24.6171,263.782,96.3006,4.9228e-05,5.715e-05,0.0,0 STARLINK-5819,1 55780U 23028AR  23109.20067003  .00005715  00000-0  49228-4 0  9990,2 55780  70.0027  24.6171 0003242 263.7820  96.3006 15.69943921  7968,6737.194,91.723,361.244,356.875,0.0
55780.0,STARLINK-5819,PAYLOAD,2023-04-20 03:45:15,15.69927817,0.000343,70.0013,21.9302,262.9134,97.1672,1.712e-05,1.847e-05,0.0,0 STARLINK-5819,1 55780U 23028AR  23110.15642503  .00001847  00000-0  17120-4 0  9998,2 55780  70.0013  21.9302 0003430 262.9134  97.1672 15.69927817  8119,6737.241,91.724,361.416,356.795,0.0
55780.0,STARLINK-5819,PAYLOAD,2023-04-21 04:13:17,15.69938085,0.0003209,70.0003,19.0618,256.1515,103.9323,1.967e-05,2.154e-05,0.0,0 STARLINK-5819,1 55780U 23028AR  23111.17589129  .00002154  00000-0  19670-4 0  9999,2 55780  70.0003  19.0618 0003209 256.1515 103.9323 15.69938085  8273,6737.211,91.723,361.238,356.914,0.0
55780.0,STARLINK-5819,PAYLOAD,2023-04-21 17:59:03,15.69932455,0.0003551,70.0013,17.4516,264.1397,95.9394,8.9044e-06,8.58e-06,0.0,0 STARLINK-5819,1 55780U 23028AR  23111.74934565  .00000858  00000-0  89044-5 0  9992,2 55780  70.0013  17.4516 0003551 264.1397  95.9394 15.69932455  8363,6737.227,91.724,361.485,356.7,0.0
55780.0,STARLINK-5819,PAYLOAD,2023-04-22 00:06:03,15.6993315,0.0003563,70.0013,16.7351,263.9366,96.1424,1.2202e-05,1.255e-05,0.0,0 STARLINK-5819,1 55780U 23028AR  23112.00421141  .00001255  00000-0  12202-4 0  9996,2 55780  70.0013  16.7351 0003563 263.9366  96.1424 15.69933150  8403,6737.225,91.724,361.491,356.69,0.0
55780.0,STARLINK-5819,PAYLOAD,2023-04-22 21:30:36,15.69918164,0.0003374,70.0011,14.2265,269.3088,90.7721,-1.6358e-05,-2.179e-05,0.0,0 STARLINK-5819,1 55780U 23028AR  23112.89625526 -.00002179  00000-0 -16358-4 0  9990,2 55780  70.0011  14.2265 0003374 269.3088  90.7721 15.69918164  8542,6737.268,91.725,361.406,356.86,0.0
55780.0,STARLINK-5819,PAYLOAD,2023-04-23 02:05:51,15.6992371,0.0003708,70.0003,13.6903,252.4748,107.6043,-6.7245e-06,-1.021e-05,0.0,0 STARLINK-5819,1 55780U 23028AR  23113.08740222 -.00001021  00000-0 -67245-5 0  9990,2 55780  70.0003  13.6903 0003708 252.4748 107.6043 15.69923710  8573,6737.252,91.724,361.615,356.619,0.0
55780.0,STARLINK-5819,PAYLOAD,2023-04-23 17:23:22,15.69933498,0.000376,70.0023,11.8997,265.133,94.9436,2.9111e-05,3.29e-05,0.0,0 STARLINK-5819,1 55780U 23028AR  23113.72456101  .00003290  00000-0  29111-4 0  9998,2 55780  70.0023  11.8997 0003760 265.1330  94.9436 15.69933498  8673,6737.224,91.724,361.622,356.556,0.0
55780.0,STARLINK-5819,PAYLOAD,2023-04-24 01:02:07,15.69946848,0.0003551,70.0012,11.0036,262.4146,97.6647,5.3348e-05,6.213e-05,0.0,0 STARLINK-5819,1 55780U 23028AR  23114.04313806  .00006213  00000-0  53348-4 0  9995,2 55780  70.0012  11.0036 0003551 262.4146  97.6647 15.69946848  8723,6737.186,91.723,361.443,356.659,0.0
55780.0,STARLINK-5819,PAYLOAD,2023-04-25 03:01:56,15.69890437,0.0003294,69.9988,7.9545,266.2801,93.8018,-8.0104e-05,-9.82e-05,0.0,0 STARLINK-5819,1 55780U 23028AR  23115.12634460 -.00009820  00000-0 -80104-4 0  9996,2 55780  69.9988   7.9545 0003294 266.2801  93.8018 15.69890437  8895,6737.347,91.726,361.432,356.993,0.0
55780.0,STARLINK-5819,PAYLOAD,2023-04-25 04:33:41,15.69880673,0.0002679,70.0007,7.7746,275.3013,84.7877,-9.1282e-05,-0.00011152,0.0,0 STARLINK-5819,1 55780U 23028AR  23115.19006825 -.00011152  00000-0 -91282-4 0  9991,2 55780  70.0007   7.7746 0002679 275.3013  84.7877 15.69880673  8908,6737.375,91.727,361.045,357.435,0.0
55780.0,STARLINK-5819,PAYLOAD,2023-04-26 00:26:29,15.6990229,0.0002045,70.0011,5.4507,293.1022,66.9958,-1.5616e-06,-3.99e-06,0.0,0 STARLINK-5819,1 55780U 23028AR  23116.01839448 -.00000399  00000-0 -15616-5 0  9997,2 55780  70.0011   5.4507 0002045 293.1022  66.9958 15.69902290  9035,6737.314,91.725,360.556,357.801,0.0
55780.0,STARLINK-5819,PAYLOAD,2023-04-26 20:19:13,15.69941477,0.0003347,70.0018,3.1236,228.7711,131.3197,0.00010327,0.00012232,0.0,0 STARLINK-5819,1 55780U 23028AR  23116.84668738  .00012232  00000-0  10327-3 0  9999,2 55780  70.0018   3.1236 0003347 228.7711 131.3197 15.69941477  9167,6737.201,91.723,361.321,356.811,0.0
55780.0,STARLINK-5819,PAYLOAD,2023-04-27 02:26:14,15.69939623,0.0004263,69.9979,2.4036,254.4447,105.6278,8.7917e-05,0.0001038,0.0,0 STARLINK-5819,1 55780U 23028AR  23117.10155257  .00010380  00000-0  87917-4 0  9998,2 55780  69.9979   2.4036 0004263 254.4447 105.6278 15.69939623  9209,6737.207,91.723,361.944,356.2,0.0
55780.0,STARLINK-5819,PAYLOAD,2023-04-27 03:58:00,15.69921003,0.0002415,70.0017,2.2214,284.8835,75.2093,6.4498e-05,7.548e-05,0.0,0 STARLINK-5819,1 55780U 23028AR  23117.16528338  .00007548  00000-0  64498-4 0  9999,2 55780  70.0017   2.2214 0002415 284.8835  75.2093 15.69921003  9217,6737.26,91.724,360.752,357.498,0.0
55780.0,STARLINK-5819,PAYLOAD,2023-04-28 01:22:32,15.69920532,0.0002402,70.0005,359.7164,286.6981,73.395,-5.205e-05,-6.464e-05,0.0,0 STARLINK-5819,1 55780U 23028AR  23118.05731543 -.00006464  00000-0 -52050-4 0  9991,2 55780  70.0005 359.7164 0002402 286.6981  73.3950 15.69920532  9358,6737.261,91.724,360.745,357.508,0.0
55780.0,STARLINK-5819,PAYLOAD,2023-04-28 09:01:17,15.69907029,0.0002932,70.0005,358.8194,267.3834,92.7026,-7.0134e-05,-8.63e-05,0.0,0 STARLINK-5819,1 55780U 23028AR  23118.37590258 -.00008630  00000-0 -70134-4 0  9992,2 55780  70.0005 358.8194 0002932 267.3834  92.7026 15.69907029  9403,6737.3,91.725,361.14,357.19,0.0
55780.0,STARLINK-5819,PAYLOAD,2023-04-28 18:11:48,15.69911445,0.0002904,70.0031,357.7456,270.7196,89.3667,-8.2101e-07,-3.11e-06,0.0,0 STARLINK-5819,1 55780U 23028AR  23118.75820388 -.00000311  00000-0 -82101-6 0  9991,2 55780  70.0031 357.7456 0002904 270.7196  89.3667 15.69911445  9465,6737.287,91.725,361.109,357.196,0.0
55780.0,STARLINK-5819,PAYLOAD,2023-04-29 01:50:33,15.69934349,0.0002288,70.0031,356.8506,254.9263,105.168,3.8997e-05,4.481e-05,0.0,0 STARLINK-5819,1 55780U 23028AR  23119.07677655  .00004481  00000-0  38997-4 0  9996,2 55780  70.0031 356.8506 0002288 254.9263 105.1680 15.69934349  9511,6737.222,91.724,360.628,357.545,0.0
55780.0,STARLINK-5819,PAYLOAD,2023-04-29 03:22:17,15.69950785,0.0002552,70.0019,356.6697,282.7375,77.3535,6.9711e-05,8.186e-05,0.0,0 STARLINK-5819,1 55780U 23028AR  23119.14048526  .00008186  00000-0  69711-4 0  9997,2 55780  70.0019 356.6697 0002552 282.7375  77.3535 15.69950785  9525,6737.175,91.723,360.759,357.32,0.0
55780.0,STARLINK-5819,PAYLOAD,2023-04-29 17:08:04,15.69917854,0.0003592,69.9992,355.0592,262.8152,97.2635,5.3262e-05,6.195e-05,0.0,0 STARLINK-5819,1 55780U 23028AR  23119.71394543  .00006195  00000-0  53262-4 0  9995,2 55780  69.9992 355.0592 0003592 262.8152  97.2635 15.69917854  9618,6737.269,91.725,361.554,356.714,0.0
55780.0,STARLINK-5819,PAYLOAD,2023-04-30 00:46:49,15.69919125,0.0003466,69.9975,354.1638,261.4392,98.6411,4.6256e-05,5.352e-05,0.0,0 STARLINK-5819,1 55780U 23028AR  23120.03252313  .00005352  00000-0  46256-4 0  9999,2 55780  69.9975 354.1638 0003466 261.4392  98.6411 15.69919125  9666,6737.265,91.724,361.466,356.795,0.0
55780.0,STARLINK-5819,PAYLOAD,2023-04-30 17:36:06,15.69926325,0.0002627,70.0002,352.1954,240.562,119.5314,7.2249e-06,6.57e-06,0.0,0 STARLINK-5819,1 55780U 23028AR  23120.73341257  .00000657  00000-0  72249-5 0  9997,2 55780  70.0002 352.1954 0002627 240.5620 119.5314 15.69926325  9776,6737.245,91.724,360.88,357.34,0.0
